{"type": "FeatureCollection", "features": [ {"type": "Feature", "properties": {"norad_id": 66604, "name": "STARLINK-35977", "group": "last-30-days", "lat": 25.02585019403901, "lon": 24.219135419374037, "alt_km": 349.6101973961004, "timestamp": "2025-12-05T16:54:13.486869+00:00", "meta": {"OBJECT_NAME": "STARLINK-35977", "OBJECT_ID": "2025-270S", "EPOCH": "2025-12-05T06:00:02.000160", "MEAN_MOTION": 15.74056683, "ECCENTRICITY": 0.00014601, "INCLINATION": 42.9988, "RA_OF_ASC_NODE": 237.0361, "ARG_OF_PERICENTER": 275.7813, "MEAN_ANOMALY": 169.9051, "EPHEMERIS_TYPE": 0, "CLASSIFICATION_TYPE": "U", "NORAD_CAT_ID": 66604, "ELEMENT_SET_NO": 999, "REV_AT_EPOCH": 319, "BSTAR": -0.014784676, "MEAN_MOTION_DOT": -0.01892644, "MEAN_MOTION_DDOT": 0}, "tle": {"line1": "1 66604U 25270S   25339.25002315 -.01892644  00000+0 -14785-1 0  9999", "line2": "2 66604  42.9988 237.0361 0001460 275.7813 169.9051 15.74056683  3199"}}, "geometry": {"type": "Point", "coordinates": [24.219135419374037, 25.02585019403901]}}, {"type": "Feature", "properties": {"norad_id": 66605, "name": "STARLINK-36052", "group": "last-30-days", "lat": 23.883682620035717, "lon": 25.91056996532738, "alt_km": 349.9136083246485, "timestamp": "2025-12-05T16:54:13.486878+00:00", "meta": {"OBJECT_NAME": "STARLINK-36052", "OBJECT_ID": "2025-270T", "EPOCH": "2025-12-05T06:00:02.000160", "MEAN_MOTION": 15.74056486, "ECCENTRICITY": 0.00015227, "INCLINATION": 42.9989, "RA_OF_ASC_NODE": 237.0323, "ARG_OF_PERICENTER": 282.5743, "MEAN_ANOMALY": 165.0283, "EPHEMERIS_TYPE": 0, "CLASSIFICATION_TYPE": "U", "NORAD_CAT_ID": 66605, "ELEMENT_SET_NO": 999, "REV_AT_EPOCH": 319, "BSTAR": -0.014776557, "MEAN_MOTION_DOT": -0.01891786, "MEAN_MOTION_DDOT": 0}, "tle": {"line1": "1 66605U 25270T   25339.25002315 -.01891786  00000+0 -14777-1 0  9997", "line2": "2 66605  42.9989 237.0323 0001522 282.5743 165.0283 15.74056486  3191"}}, "geometry": {"type": "Point", "coordinates": [25.91056996532738, 23.883682620035717]}}, {"type": "Feature", "properties": {"norad_id": 66606, "name": "STARLINK-36063", "group": "last-30-days", "lat": 21.549805124504473, "lon": 29.196782107077084, "alt_km": 350.2112122438275, "timestamp": "2025-12-05T16:54:13.486887+00:00", "meta": {"OBJECT_NAME": "STARLINK-36063", "OBJECT_ID": "2025-270U", "EPOCH": "2025-12-05T06:00:02.000160", "MEAN_MOTION": 15.74048689, "ECCENTRICITY": 0.00016545, "INCLINATION": 42.9988, "RA_OF_ASC_NODE": 237.0217, "ARG_OF_PERICENTER": 277.9913, "MEAN_ANOMALY": 173.4501, "EPHEMERIS_TYPE": 0, "CLASSIFICATION_TYPE": "U", "NORAD_CAT_ID": 66606, "ELEMENT_SET_NO": 999, "REV_AT_EPOCH": 319, "BSTAR": -0.014710163, "MEAN_MOTION_DOT": -0.01883986, "MEAN_MOTION_DDOT": 0}, "tle": {"line1": "1 66606U 25270U   25339.25002315 -.01883986  00000+0 -14710-1 0  9998", "line2": "2 66606  42.9988 237.0217 0001654 277.9913 173.4501 15.74048689  3198"}}, "geometry": {"type": "Point", "coordinates": [29.196782107077084, 21.549805124504473]}}, {"type": "Feature", "properties": {"norad_id": 66607, "name": "STARLINK-35993", "group": "last-30-days", "lat": 22.724118777714615, "lon": 27.569909574472963, "alt_km": 349.71293962076106, "timestamp": "2025-12-05T16:54:13.486896+00:00", "meta": {"OBJECT_NAME": "STARLINK-35993", "OBJECT_ID": "2025-270V", "EPOCH": "2025-12-05T06:00:02.000160", "MEAN_MOTION": 15.74048388, "ECCENTRICITY": 0.00010901, "INCLINATION": 42.9989, "RA_OF_ASC_NODE": 237.0276, "ARG_OF_PERICENTER": 274.3138, "MEAN_ANOMALY": 175.2102, "EPHEMERIS_TYPE": 0, "CLASSIFICATION_TYPE": "U", "NORAD_CAT_ID": 66607, "ELEMENT_SET_NO": 999, "REV_AT_EPOCH": 309, "BSTAR": -0.014706267, "MEAN_MOTION_DOT": -0.01883036, "MEAN_MOTION_DDOT": 0}, "tle": {"line1": "1 66607U 25270V   25339.25002315 -.01883036  00000+0 -14706-1 0  9990", "line2": "2 66607  42.9989 237.0276 0001090 274.3138 175.2102 15.74048388  3091"}}, "geometry": {"type": "Point", "coordinates": [27.569909574472963, 22.724118777714615]}}, {"type": "Feature", "properties": {"norad_id": 66608, "name": "STARLINK-36036", "group": "last-30-days", "lat": 20.35821242856649, "lon": 30.801130616647857, "alt_km": 350.2164541198845, "timestamp": "2025-12-05T16:54:13.486909+00:00", "meta": {"OBJECT_NAME": "STARLINK-36036", "OBJECT_ID": "2025-270W", "EPOCH": "2025-12-05T06:00:02.000160", "MEAN_MOTION": 15.74053208, "ECCENTRICITY": 0.00015635, "INCLINATION": 42.9989, "RA_OF_ASC_NODE": 237.0173, "ARG_OF_PERICENTER": 272.7622, "MEAN_ANOMALY": 180.5933, "EPHEMERIS_TYPE": 0, "CLASSIFICATION_TYPE": "U", "NORAD_CAT_ID": 66608, "ELEMENT_SET_NO": 999, "REV_AT_EPOCH": 303, "BSTAR": -0.014748677, "MEAN_MOTION_DOT": -0.01888498, "MEAN_MOTION_DDOT": 0}, "tle": {"line1": "1 66608U 25270W   25339.25002315 -.01888498  00000+0 -14749-1 0  9995", "line2": "2 66608  42.9989 237.0173 0001563 272.7622 180.5933 15.74053208  3035"}}, "geometry": {"type": "Point", "coordinates": [30.801130616647857, 20.35821242856649]}}, {"type": "Feature", "properties": {"norad_id": 66609, "name": "STARLINK-36034", "group": "last-30-days", "lat": 19.147698077821, "lon": 32.38658510256283, "alt_km": 350.4256306883708, "timestamp": "2025-12-05T16:54:13.486918+00:00", "meta": {"OBJECT_NAME": "STARLINK-36034", "OBJECT_ID": "2025-270X", "EPOCH": "2025-12-05T06:00:02.000160", "MEAN_MOTION": 15.74023879, "ECCENTRICITY": 0.00013931, "INCLINATION": 42.9988, "RA_OF_ASC_NODE": 237.0132, "ARG_OF_PERICENTER": 279.6485, "MEAN_ANOMALY": 175.6462, "EPHEMERIS_TYPE": 0, "CLASSIFICATION_TYPE": "U", "NORAD_CAT_ID": 66609, "ELEMENT_SET_NO": 999, "REV_AT_EPOCH": 303, "BSTAR": -0.014491964, "MEAN_MOTION_DOT": -0.01857741, "MEAN_MOTION_DDOT": 0}, "tle": {"line1": "1 66609U 25270X   25339.25002315 -.01857741  00000+0 -14492-1 0  9998", "line2": "2 66609  42.9988 237.0132 0001393 279.6485 175.6462 15.74023879  3037"}}, "geometry": {"type": "Point", "coordinates": [32.38658510256283, 19.147698077821]}}, {"type": "Feature", "properties": {"norad_id": 66610, "name": "STARLINK-35680", "group": "last-30-days", "lat": 17.92929587014125, "lon": 33.94093784709221, "alt_km": 350.3867590230893, "timestamp": "2025-12-05T16:54:13.486927+00:00", "meta": {"OBJECT_NAME": "STARLINK-35680", "OBJECT_ID": "2025-270Y", "EPOCH": "2025-12-05T06:00:02.000160", "MEAN_MOTION": 15.74048601, "ECCENTRICITY": 0.00012321, "INCLINATION": 42.9987, "RA_OF_ASC_NODE": 237.0084, "ARG_OF_PERICENTER": 272.3525, "MEAN_ANOMALY": 184.8397, "EPHEMERIS_TYPE": 0, "CLASSIFICATION_TYPE": "U", "NORAD_CAT_ID": 66610, "ELEMENT_SET_NO": 999, "REV_AT_EPOCH": 330, "BSTAR": -0.014699907, "MEAN_MOTION_DOT": -0.01882468, "MEAN_MOTION_DDOT": 0}, "tle": {"line1": "1 66610U 25270Y   25339.25002315 -.01882468  00000+0 -14700-1 0  9996", "line2": "2 66610  42.9987 237.0084 0001232 272.3525 184.8397 15.74048601  3300"}}, "geometry": {"type": "Point", "coordinates": [33.94093784709221, 17.92929587014125]}}, {"type": "Feature", "properties": {"norad_id": 66611, "name": "STARLINK-35583", "group": "last-30-days", "lat": 16.697019166708444, "lon": 35.47587009704123, "alt_km": 350.82941312518506, "timestamp": "2025-12-05T16:54:13.486937+00:00", "meta": {"OBJECT_NAME": "STARLINK-35583", "OBJECT_ID": "2025-270Z", "EPOCH": "2025-12-05T06:00:02.000160", "MEAN_MOTION": 15.74051648, "ECCENTRICITY": 0.00014753, "INCLINATION": 42.9988, "RA_OF_ASC_NODE": 237.0034, "ARG_OF_PERICENTER": 280.8157, "MEAN_ANOMALY": 178.2946, "EPHEMERIS_TYPE": 0, "CLASSIFICATION_TYPE": "U", "NORAD_CAT_ID": 66611, "ELEMENT_SET_NO": 999, "REV_AT_EPOCH": 330, "BSTAR": -0.014751424, "MEAN_MOTION_DOT": -0.01888612, "MEAN_MOTION_DDOT": 0}, "tle": {"line1": "1 66611U 25270Z   25339.25002315 -.01888612  00000+0 -14751-1 0  9990", "line2": "2 66611  42.9988 237.0034 0001475 280.8157 178.2946 15.74051648  3303"}}, "geometry": {"type": "Point", "coordinates": [35.47587009704123, 16.697019166708444]}}, {"type": "Feature", "properties": {"norad_id": 66612, "name": "STARLINK-36039", "group": "last-30-days", "lat": 15.454388170097213, "lon": 36.98971772791497, "alt_km": 350.93353765965, "timestamp": "2025-12-05T16:54:13.486947+00:00", "meta": {"OBJECT_NAME": "STARLINK-36039", "OBJECT_ID": "2025-270AA", "EPOCH": "2025-12-05T06:00:02.000160", "MEAN_MOTION": 15.74049735, "ECCENTRICITY": 0.00015065, "INCLINATION": 42.9988, "RA_OF_ASC_NODE": 236.9983, "ARG_OF_PERICENTER": 277.7785, "MEAN_ANOMALY": 183.2493, "EPHEMERIS_TYPE": 0, "CLASSIFICATION_TYPE": "U", "NORAD_CAT_ID": 66612, "ELEMENT_SET_NO": 999, "REV_AT_EPOCH": 319, "BSTAR": -0.014725639, "MEAN_MOTION_DOT": -0.01885644, "MEAN_MOTION_DDOT": 0}, "tle": {"line1": "1 66612U 25270AA  25339.25002315 -.01885644  00000+0 -14726-1 0  9995", "line2": "2 66612  42.9988 236.9983 0001506 277.7785 183.2493 15.74049735  3196"}}, "geometry": {"type": "Point", "coordinates": [36.98971772791497, 15.454388170097213]}}, {"type": "Feature", "properties": {"norad_id": 66613, "name": "STARLINK-36037", "group": "last-30-days", "lat": 14.20150883858138, "lon": 38.48605278075923, "alt_km": 351.1182948776268, "timestamp": "2025-12-05T16:54:13.486956+00:00", "meta": {"OBJECT_NAME": "STARLINK-36037", "OBJECT_ID": "2025-270AB", "EPOCH": "2025-12-05T06:00:02.000160", "MEAN_MOTION": 15.7405029, "ECCENTRICITY": 0.0001553, "INCLINATION": 42.9987, "RA_OF_ASC_NODE": 236.9939, "ARG_OF_PERICENTER": 278.4437, "MEAN_ANOMALY": 184.4984, "EPHEMERIS_TYPE": 0, "CLASSIFICATION_TYPE": "U", "NORAD_CAT_ID": 66613, "ELEMENT_SET_NO": 999, "REV_AT_EPOCH": 319, "BSTAR": -0.014714544, "MEAN_MOTION_DOT": -0.01884495, "MEAN_MOTION_DDOT": 0}, "tle": {"line1": "1 66613U 25270AB  25339.25002315 -.01884495  00000+0 -14715-1 0  9997", "line2": "2 66613  42.9987 236.9939 0001553 278.4437 184.4984 15.74050290  3197"}}, "geometry": {"type": "Point", "coordinates": [38.48605278075923, 14.20150883858138]}}]}